STARLINK-31668          
1 59580U 24076S   26068.20327655 -.00003044  00000+0 -10115-3 0  9991
2 59580  43.0046  11.2859 0001291 278.2147  81.8559 15.27569780106436
FLOCK 4G-9              
1 62622U 25009P   26068.80935633  .00010752  00000+0  41817-3 0  9991
2 62622  97.4000 150.6115 0003614 328.2191  31.8829 15.26202239 63696
